IRIDIUM 36 [-]          
1 24967U 97056C   23323.78144435  .00000414  00000+0  13458-3 0  9996
2 24967  86.3990  54.5791 0002281  93.2423 266.9035 14.36512225369585
IRIDIUM 39 [-]          
1 25042U 97069D   23323.82335410  .00000753  00000+0  19905-3 0  9994
2 25042  86.3896  97.5675 0020318  68.8162 291.5210 14.47502457365945
IRIDIUM 38 [-]          
1 25043U 97069E   23323.71635468  .00000526  00000+0  17108-3 0  9990
2 25043  86.3933 115.1017 0002296 146.6234 213.5108 14.36967737363543
IRIDIUM 42 [-]          
1 25077U 97077A   23323.79921598  .00000495  00000+0  16625-3 0  9994
2 25077  86.3937 120.5363 0001945 109.3886 250.7520 14.35275871358632
IRIDIUM 44 [-]          
1 25078U 97077B   23323.83118056  .00000538  00000+0  16781-3 0  9998
2 25078  86.3931 103.9883 0003857 105.0588 255.1037 14.39075439360957
IRIDIUM 45 [-]          
1 25104U 97082A   23323.72530626  .00009749  00000+0  62216-3 0  9990
2 25104  86.3736 320.5610 0173828 281.7182  76.4591 14.96820595365568
IRIDIUM 24 [-]          
1 25105U 97082B   23323.76113075  .00000552  00000+0  16617-3 0  9997
2 25105  86.3886 323.9792 0011864 166.6926 193.4588 14.40834368360575
IRIDIUM 51 [-]          
1 25262U 98018A   23323.53159973  .00008750  00000+0  47765-3 0  9999
2 25262  86.3915 331.0845 0160192 234.6909 123.9259 15.03745951359689
